UNKNOWN                 
1 82642U          26093.04231458  .00003692  00000+0  20329-2 0  9996
2 82642  98.9732   7.8645 0134221 286.2466  72.3972 14.07749080631795
UNKNOWN                 
1 82683U          26094.61917710  .00001724  00000+0  65686-3 0  9997
2 82683  98.1555 160.0390 0210848  65.6002 296.7021 14.20476706478297
UNKNOWN                 
1 82693U          26094.18527540  .00003578  00000+0  40919-2 0  9998
2 82693 100.5290  73.0807 0042974 100.3362 260.2629 13.70169601569150
UNKNOWN                 
1 82698U          26095.57959492  .00001015  00000+0  62623-3 0  9993
2 82698  61.6086 205.4600 0690444 331.9668  24.5693 13.29923820553519
UNKNOWN                 
1 82708U          26090.07964705  .00000868  00000+0  34481-2 0  9993
2 82708 102.1610 308.7249 0064888  62.5614 298.2057 12.90779777537496
UNKNOWN                 
1 82729U          26094.57995214 -.00000001  00000+0  14194-3 0  9994
2 82729  67.9711 310.7450 0835282 293.8433  57.7215 12.17870007548941
UNKNOWN                 
1 82739U          26093.40243537  .00000824  00000+0  71000-3 0  9991
2 82739  99.0971 250.9783 0169793 354.5530  33.6824 13.83005849621545
UNKNOWN                 
1 82741U          26095.49180228  .00002042  00000+0  22351-2 0  9990
2 82741 102.8409 172.5836 0193619  12.3553 348.2230 13.66572312612612
UNKNOWN                 
1 82783U          26095.13958537  .00001638  00000+0  47487-2 0  9990
2 82783  90.3477  41.7997 0020431 156.6722 203.5337 13.09136599519190
UNKNOWN                 
1 82820U          26090.97461871  .00003726  00000+0  12861-2 0  9997
2 82820  99.7965 271.3382 0048489  64.9555 295.6650 14.35883151641306
UNKNOWN                 
1 82829U          26084.48836679  .00000210  00000+0  69735-2 0  9994
2 82829  65.0952 253.4585 0175129 314.9407  65.8445 11.29179881497686
UNKNOWN                 
1 82854U          26089.95382050  .00002243  00000+0  17411-2 0  9990
2 82854  82.6921 339.7053 0131046 335.3291  24.1638 13.88258393622811
UNKNOWN                 
1 82873U          26092.20616506  .00004743  00000+0  20188-2 0  9991
2 82873  99.9947   6.5532 0039873 338.4148  21.5345 14.25334886636963
UNKNOWN                 
1 82875U          26091.19966969  .00001326  00000+0  35534-3 0  9997
2 82875  98.6894  76.9418 0376718 329.1838  28.7696 14.15376682559951
UNKNOWN                 
1 82893U          26094.60326532  .00012254  00000+0  43999-2 0  9997
2 82893  98.9628 218.5078 0023979  83.0871 277.3039 14.33821330440133
UNKNOWN                 
1 82912U          26094.22882103  .00004382  00000+0  18223-2 0  9993
2 82912  65.8339 274.8549 0769394 217.7657 136.6950 13.28514923594264
UNKNOWN                 
1 82961U          26095.17199776  .00011198  00000+0  16458-1 0  9999
2 82961  99.8187 248.8565 0397281 102.2558 262.3336 13.26734208570734
